0 COSMOS 1766
1 16881U 86055A   13282.46229779  .00004035  00000-0  29244-3 0  6982
2 16881 082.5099 256.0320 0012831 000.6956 359.4285 15.03649592478502
0 COSMOS 1766
1 16881U 86055A   13283.79322723  .00004156  00000-0  30121-3 0  6993
2 16881 082.5102 254.7439 0012652 355.7582 004.3535 15.03657539478709
0 COSMOS 1766
1 16881U 86055A   13286.12233387  .00003600  00000-0  26060-3 0  7014
2 16881 082.5106 252.4892 0012317 347.0076 013.0831 15.03674433479058
0 COSMOS 1766
1 16881U 86055A   13287.45324052  .00003600  00000-0  26053-3 0  7024
2 16881 082.5109 251.2006 0012123 342.0964 017.9833 15.03682658479256
0 COSMOS 1766
1 16881U 86055A   13289.11685942  .00004362  00000-0  31600-3 0  7038
2 16881 082.5112 249.5903 0012002 336.3552 023.7120 15.03697379479509
0 COSMOS 1766
1 16881U 86055A   13290.44774503  .00004236  00000-0  30671-3 0  7046
2 16881 082.5116 248.3017 0011785 331.5694 028.4888 15.03706959479707
0 COSMOS 1766
1 16881U 86055A   13292.04479613  .00003259  00000-0  23549-3 0  7059
2 16881 082.5120 246.7556 0011541 325.8562 034.1920 15.03717357479943
0 COSMOS 1766
1 16881U 86055A   13293.17603414  .00003678  00000-0  26596-3 0  7063
2 16881 082.5122 245.6606 0011394 321.8315 038.2103 15.03723443480119
0 COSMOS 1766
1 16881U 86055A   13294.44035361  .00004279  00000-0  30968-3 0  7071
2 16881 082.5121 244.4369 0011255 317.4961 042.5393 15.03731172480303
0 COSMOS 1766
1 16881U 86055A   13296.10392152  .00004245  00000-0  30716-3 0  7085
2 16881 082.5118 242.8268 0011117 311.7749 048.2526 15.03741740480557
